ONEWEB-0201             
1 48241U 21031AH  21207.66667824 -.01021141  00000-0 -91501+0 0  9990
2 48241  87.7720 285.2864 0008785 304.7020 280.2969 13.87640863  3433
ONEWEB-0207             
1 48242U 21031AJ  21207.91667824  .00000015  00000-0  00000+0 0  9997
2 48242  87.7228 285.1804 0007215 332.0939 247.8908 13.76029590 13530
ONEWEB-0208             
1 48243U 21031AK  21207.91667824  .00000015  00000-0  00000+0 0  9998
2 48243  87.7650 285.1673 0005635 327.5340  84.9782 13.80041277 13534
ONEWEB-0200             
1 48244U 21031AL  21207.91667824  .00000015  00000-0  00000+0 0  9999
2 48244  87.7598 285.0911 0009321 319.7907 246.8373 13.75791913 13479
ONEWEB-0217             
1 48245U 21031AM  21207.91667824  .00000015  00000-0  00000+0 0  9990
2 48245  87.7641 285.0621 0006841 345.7921 198.2994 13.69554909 13436
ONEWEB-0211             
1 48767U 21045A   21207.83334491 -.01490194  00000-0 -32431+0 0  9993
2 48767  87.5909 256.7695 0009914  71.5387 111.6830 14.61333961 10240
ONEWEB-0223             
1 48768U 21045B   21207.58334491 -.01373874  00000-0 -30844+0 0  9997
2 48768  87.5716 256.8130 0012690  49.3725 337.6167 14.60168866  3598
ONEWEB-0230             
1 48769U 21045C   21207.83334491 -.01128197  00000-0 -13803+0 0  9998
2 48769  87.7007 256.6280 0009070  59.9352 244.9923 14.86237901 10288
ONEWEB-0237             
1 48770U 21045D   21207.91667824 -.01389056  00000-0 -36638+0 0  9992
2 48770  87.5372 256.7428 0013769  61.6568  79.6554 14.52772510 10227
ONEWEB-0235             
1 48771U 21045E   21207.85098206 -.00356350  00000-0 -85942-1 0  9992
2 48771  87.5656 256.8180 0009451  64.3617 295.8567 14.55424592 10196
ONEWEB-0242             
1 48772U 21045F   21207.58334491 -.01081397  00000-0 -21846+0 0  9990
2 48772  87.5967 256.7979 0013151  70.0021 156.8602 14.64657617  3589
ONEWEB-0241             
1 48773U 21045G   21207.58334491 -.01372266  00000-0 -35452+0 0  9997
2 48773  87.5371 256.8142 0009545  59.7388 148.3956 14.53742751  3540
ONEWEB-0243             
1 48774U 21045H   21207.83334491 -.01472081  00000-0 -41048+0 0  9990
2 48774  87.5278 256.8029 0013287  65.9625 203.7971 14.49792595 10202
ONEWEB-0222             
1 48775U 21045J   21207.83334491 -.01472117  00000-0 -36743+0 0  9997
2 48775  87.5542 256.7433 0012966  64.1725 140.8161 14.54983489 10235
ONEWEB-0244             
1 48776U 21045K   21207.83334491 -.01158707  00000-0 -21189+0 0  9992
2 48776  87.6284 256.7391 0008376  66.9957 310.8772 14.69341151 10260
ONEWEB-0247             
1 48777U 21045L   21207.58334491 -.01376681  00000-0 -35600+0 0  9991
2 48777  87.5279 256.8092 0009176  59.2655 148.4308 14.53713914  3559
ONEWEB-0245             
1 48778U 21045M   21207.83334491 -.01419824  00000-0 -34674+0 0  9997
2 48778  87.5499 256.7606 0013236  60.0805 232.4609 14.56433037 10210
ONEWEB-0229             
1 48779U 21045N   21207.83334491 -.01457215  00000-0 -38412+0 0  9998
2 48779  87.5339 256.7676 0009300  70.0206 358.9817 14.52445228 10210
ONEWEB-0228             
1 48780U 21045P   21207.83334491 -.01453175  00000-0 -40200+0 0  9999
2 48780  87.5251 256.7818 0011361  53.2984 343.2140 14.50145826 10203
ONEWEB-0232             
1 48781U 21045Q   21207.84544519 -.00282931  00000-0 -26891-1 0  9996
2 48781  87.6994 256.5213 0011891  72.7246 287.5285 14.95069074 10301
ONEWEB-0231             
1 48782U 21045R   21207.58334491 -.01375994  00000-0 -34846+0 0  9994
2 48782  87.5410 256.8088 0010579  70.1653 357.9813 14.54669320  3534
ONEWEB-0234             
1 48783U 21045S   21207.83334491 -.01415852  00000-0 -31155+0 0  9991
2 48783  87.5588 256.7411 0010738  50.9592 319.9728 14.61209617 10229
ONEWEB-0238             
1 48784U 21045T   21207.58334491 -.01356934  00000-0 -32997+0 0  9994
2 48784  87.5533 256.8257 0012032  67.5502 225.1932 14.56478207  3621
ONEWEB-0240             
1 48785U 21045U   21207.83334491 -.01208873  00000-0 -25200+0 0  9990
2 48785  87.6003 256.7888 0009725  64.7795  73.9297 14.63130017 10232
ONEWEB-0246             
1 48786U 21045V   21207.83334491 -.01452365  00000-0 -43743+0 0  9990
2 48786  87.4915 256.7855 0009511  79.7057 277.8745 14.46095319 10179
ONEWEB-0210             
1 48787U 21045W   21207.83334491 -.01442218  00000-0 -39965+0 0  9998
2 48787  87.5190 256.7744 0011798  50.8510 296.3818 14.50035174 10206
ONEWEB-0214             
1 48788U 21045X   21207.83334491 -.01469947  00000-0 -45823+0 0  9997
2 48788  87.4888 256.8009 0009030  70.2542 108.8373 14.44454782 10174
ONEWEB-0221             
1 48789U 21045Y   21207.58334491 -.01376984  00000-0 -30030+0 0  9992
2 48789  87.5752 256.8183 0012539  44.9892  54.3231 14.61492818  3545
ONEWEB-0213             
1 48790U 21045Z   21207.83334491 -.01431764  00000-0 -34065+0 0  9992
2 48790  87.5719 256.7468 0013485  54.6746  27.0847 14.57660400 10246
ONEWEB-0212             
1 48791U 21045AA  21207.83334491 -.01471190  00000-0 -33666+0 0  9996
2 48791  87.5722 256.7503 0013346  54.0158 138.3371 14.58971573 10254
ONEWEB-0227             
1 48792U 21045AB  21207.58334491 -.01376567  00000-0 -36521+0 0  9994
2 48792  87.5249 256.9193 0010253  53.8239 342.0011 14.52506896  3553
ONEWEB-0226             
1 48793U 21045AC  21207.58334491 -.01403519  00000-0 -37741+0 0  9998
2 48793  87.5143 256.8210 0012596  73.3696 349.8387 14.51353175  3563
ONEWEB-0224             
1 48794U 21045AD  21207.83334491 -.01475905  00000-0 -49041+0 0  9991
2 48794  87.4645 256.7634 0010359  61.9689  82.8027 14.41309611 10163
ONEWEB-0233             
1 48795U 21045AE  21207.83334491 -.01463100  00000-0 -46831+0 0  9990
2 48795  87.4645 256.7701 0008425  73.3878 257.9057 14.43140566 10169
ONEWEB-0190             
1 48796U 21045AF  21207.58334491 -.01375523  00000-0 -34282+0 0  9991
2 48796  87.5156 256.8342 0012542  74.6311  75.1115 14.55385861  3531
ONEWEB-0236             
1 48797U 21045AG  21207.58334491 -.01404901  00000-0 -43074+0 0  9994
2 48797  87.4770 256.8205 0009044  75.9928 264.0560 14.45112815 10135
ONEWEB-0248             
1 48798U 21045AH  21207.83334491 -.01201565  00000-0 -24845+0 0  9999
2 48798  87.5969 256.7367 0011685  67.6475 332.7734 14.63455591 10243
ONEWEB-0225             
1 48799U 21045AJ  21207.58334491 -.00978131  00000-0 -18947+0 0  9997
2 48799  87.6022 256.7915 0009489  74.1525 124.6202 14.66265273  3555
ONEWEB-0215             
1 48800U 21045AK  21207.83334491 -.01451891  00000-0 -43664+0 0  9992
2 48800  87.4855 256.7611 0011167  75.1214 357.5182 14.46156081 10179
ONEWEB-0216             
1 48801U 21045AL  21207.83334491 -.01475982  00000-0 -45283+0 0  9999
2 48801  87.4776 256.8442 0009990  76.2904 326.3578 14.45246148 10170
ONEWEB-0239             
1 48802U 21045AM  21207.58334491 -.01361357  00000-0 -36226+0 0  9999
2 48802  87.5900 256.9442 0014054  69.2835  57.6377 14.52281207  3530
ONEWEB-0249             
1 48967U 21060A   21207.58334491 -.01444355  00000-0 -97370-1 0  9997
2 48967  87.4542 228.6262 0006367 168.4662 271.1869 15.09944732  5125
ONEWEB-0250             
1 48968U 21060B   21207.78714427 -.00451996  00000-0 -29666-1 0  9992
2 48968  87.4303 228.5642 0009716 149.6687 210.5116 15.09939000  5158
ONEWEB-0251             
1 48969U 21060C   21207.75993537 -.00047779  00000-0 -12949-2 0  9998
2 48969  87.3967 228.4642 0009954 176.3996 183.7331 15.37849585  5156
ONEWEB-0252             
1 48970U 21060D   21207.58334491 -.01448091  00000-0 -94081-1 0  9998
2 48970  87.4393 228.6104 0010183 170.5314   0.6613 15.11239041  3614
ONEWEB-0253             
1 48971U 21060E   21207.58334491 -.01465331  00000-0 -10270+0 0  9991
2 48971  87.4111 228.6611 0008052 157.5593 258.3773 15.08559427  5106
ONEWEB-0254             
1 48972U 21060F   21207.58334491 -.01449190  00000-0 -10954+0 0  9996
2 48972  87.4269 228.6484 0010522 174.2304  17.3170 15.05714330  3644
ONEWEB-0255             
1 48973U 21060G   21207.58334491 -.01452659  00000-0 -99746-1 0  9999
2 48973  87.4415 228.6249 0006003 166.5091 248.9293 15.09300415  3628
ONEWEB-0256             
1 48974U 21060H   21207.58334491 -.01451812  00000-0 -10813+0 0  9996
2 48974  87.4330 228.6485 0011391 167.7980  61.2506 15.06253406  3642
ONEWEB-0257             
1 48975U 21060J   21207.79202973 -.00441541  00000-0 -29021-1 0  9999
2 48975  87.4387 228.5739 0011120 149.4430 210.7458 15.09818317  5159
ONEWEB-0258             
1 48976U 21060K   21207.58334491 -.01468401  00000-0 -10903+0 0  9990
2 48976  87.4241 228.6605 0007623 160.4155 309.4556 15.06454553  3644
ONEWEB-0259             
1 48977U 21060L   21207.58334491 -.01448174  00000-0 -92588-1 0  9997
2 48977  87.4437 228.6049 0011873 168.0220  36.5557 15.11790483  3610
ONEWEB-0260             
1 48978U 21060M   21207.77499687 -.00071324  00000-0 -45566-2 0  9991
2 48978  87.4098 228.5924 0007271 153.9791 206.1814 15.09066511  5133
ONEWEB-0261             
1 48979U 21060N   21207.58334491 -.01445118  00000-0 -92591-1 0  9998
2 48979  87.4408 228.5970 0010767 167.6370  25.2285 15.11723609  5132
ONEWEB-0262             
1 48980U 21060P   21207.58334491 -.01436511  00000-0 -93987-1 0  9997
2 48980  87.4555 228.6234 0007769 170.7748 306.5145 15.10991974  3615
ONEWEB-0263             
1 48981U 21060Q   21207.79068073 -.00453691  00000-0 -30127-1 0  9995
2 48981  87.4341 228.5716 0010624 146.4048 213.7866 15.09511906  5151
ONEWEB-0264             
1 48982U 21060R   21207.83334491 -.01434218  00000-0 -11399+0 0  9994
2 48982  87.4266 228.5707 0008702 179.6683 228.4792 15.03836359  5141
ONEWEB-0265             
1 48983U 21060S   21207.58334491 -.00008127  00000-0 -20058-3 0  9998
2 48983  87.3962 228.5053 0007141 161.4125 112.3563 15.40730582  5143
ONEWEB-0266             
1 48984U 21060T   21207.58334491 -.01438284  00000-0 -10525+0 0  9995
2 48984  87.4307 228.6344 0010908 171.2636  73.6076 15.06879536  3616
